CCSDS_OMM_VERS = 2.0
CREATION_DATE  = 
ORIGINATOR     = 

OBJECT_NAME    = TRANSPORTER-15CM
OBJECT_ID      = 2025-276CM
CENTER_NAME    = EARTH
REF_FRAME      = TEME
TIME_SYSTEM    = UTC
MEAN_ELEMENT_THEORY = SGP/SGP4

EPOCH          = 2025-12-27T23:07:05.715840
MEAN_MOTION    = 15.17952704
ECCENTRICITY   = .00023159
INCLINATION    = 97.4394
RA_OF_ASC_NODE = 73.4740
ARG_OF_PERICENTER = 172.8823
MEAN_ANOMALY   = 187.2444

EPHEMERIS_TYPE = 0
CLASSIFICATION_TYPE = U
NORAD_CAT_ID   = 66749
ELEMENT_SET_NO = 999
REV_AT_EPOCH   = 443
BSTAR          = .6327406E-3
MEAN_MOTION_DOT = .12794E-3
MEAN_MOTION_DDOT = 0

CCSDS_OMM_VERS = 2.0
CREATION_DATE  = 
ORIGINATOR     = 

OBJECT_NAME    = TRANSPORTER-15CN
OBJECT_ID      = 2025-276CN
CENTER_NAME    = EARTH
REF_FRAME      = TEME
TIME_SYSTEM    = UTC
MEAN_ELEMENT_THEORY = SGP/SGP4

EPOCH          = 2025-12-27T10:22:34.928544
MEAN_MOTION    = 15.17947240
ECCENTRICITY   = .00043279
INCLINATION    = 97.4386
RA_OF_ASC_NODE = 72.9732
ARG_OF_PERICENTER = 136.6329
MEAN_ANOMALY   = 223.5247

EPHEMERIS_TYPE = 0
CLASSIFICATION_TYPE = U
NORAD_CAT_ID   = 66750
ELEMENT_SET_NO = 999
REV_AT_EPOCH   = 435
BSTAR          = -.70296504E-2
MEAN_MOTION_DOT = -.140011E-2
MEAN_MOTION_DDOT = 0

CCSDS_OMM_VERS = 2.0
CREATION_DATE  = 
ORIGINATOR     = 

OBJECT_NAME    = ICEYE-X58
OBJECT_ID      = 2025-276CP
CENTER_NAME    = EARTH
REF_FRAME      = TEME
TIME_SYSTEM    = UTC
MEAN_ELEMENT_THEORY = SGP/SGP4

EPOCH          = 2025-12-27T23:07:59.473056
MEAN_MOTION    = 15.17849857
ECCENTRICITY   = .00028037
INCLINATION    = 97.4406
RA_OF_ASC_NODE = 73.4820
ARG_OF_PERICENTER = 187.1831
MEAN_ANOMALY   = 172.9364

EPHEMERIS_TYPE = 0
CLASSIFICATION_TYPE = U
NORAD_CAT_ID   = 66751
ELEMENT_SET_NO = 999
REV_AT_EPOCH   = 443
BSTAR          = .36885526E-3
MEAN_MOTION_DOT = .7403E-4
MEAN_MOTION_DDOT = 0

CCSDS_OMM_VERS = 2.0
CREATION_DATE  = 
ORIGINATOR     = 

OBJECT_NAME    = ICEYE-X59
OBJECT_ID      = 2025-276CQ
CENTER_NAME    = EARTH
REF_FRAME      = TEME
TIME_SYSTEM    = UTC
MEAN_ELEMENT_THEORY = SGP/SGP4

EPOCH          = 2025-12-27T20:03:26.329824
MEAN_MOTION    = 15.17657691
ECCENTRICITY   = .00021186
INCLINATION    = 97.4399
RA_OF_ASC_NODE = 73.3468
ARG_OF_PERICENTER = 212.1507
MEAN_ANOMALY   = 147.9598

EPHEMERIS_TYPE = 0
CLASSIFICATION_TYPE = U
NORAD_CAT_ID   = 66752
ELEMENT_SET_NO = 999
REV_AT_EPOCH   = 441
BSTAR          = .56723077E-3
MEAN_MOTION_DOT = .11363E-3
MEAN_MOTION_DDOT = 0

CCSDS_OMM_VERS = 2.0
CREATION_DATE  = 
ORIGINATOR     = 

OBJECT_NAME    = ICEYE-X60
OBJECT_ID      = 2025-276CR
CENTER_NAME    = EARTH
REF_FRAME      = TEME
TIME_SYSTEM    = UTC
MEAN_ELEMENT_THEORY = SGP/SGP4

EPOCH          = 2025-12-27T21:44:50.760384
MEAN_MOTION    = 15.17428376
ECCENTRICITY   = .00012856
INCLINATION    = 97.4400
RA_OF_ASC_NODE = 73.4019
ARG_OF_PERICENTER = 237.3905
MEAN_ANOMALY   = 122.7205

EPHEMERIS_TYPE = 0
CLASSIFICATION_TYPE = U
NORAD_CAT_ID   = 66753
ELEMENT_SET_NO = 999
REV_AT_EPOCH   = 442
BSTAR          = .32456901E-3
MEAN_MOTION_DOT = .6427E-4
MEAN_MOTION_DDOT = 0

CCSDS_OMM_VERS = 2.0
CREATION_DATE  = 
ORIGINATOR     = 

OBJECT_NAME    = ICEYE-X61
OBJECT_ID      = 2025-276CS
CENTER_NAME    = EARTH
REF_FRAME      = TEME
TIME_SYSTEM    = UTC
MEAN_ELEMENT_THEORY = SGP/SGP4

EPOCH          = 2025-12-27T23:06:31.706208
MEAN_MOTION    = 15.17901527
ECCENTRICITY   = .00027263
INCLINATION    = 97.4399
RA_OF_ASC_NODE = 73.4780
ARG_OF_PERICENTER = 175.6159
MEAN_ANOMALY   = 184.5100

EPHEMERIS_TYPE = 0
CLASSIFICATION_TYPE = U
NORAD_CAT_ID   = 66754
ELEMENT_SET_NO = 999
REV_AT_EPOCH   = 443
BSTAR          = .59726915E-3
MEAN_MOTION_DOT = .12054E-3
MEAN_MOTION_DDOT = 0

CCSDS_OMM_VERS = 2.0
CREATION_DATE  = 
ORIGINATOR     = 

OBJECT_NAME    = ICEYE-X62
OBJECT_ID      = 2025-276CT
CENTER_NAME    = EARTH
REF_FRAME      = TEME
TIME_SYSTEM    = UTC
MEAN_ELEMENT_THEORY = SGP/SGP4

EPOCH          = 2025-12-27T16:53:51.781920
MEAN_MOTION    = 15.17676862
ECCENTRICITY   = .00014115
INCLINATION    = 97.4399
RA_OF_ASC_NODE = 73.2121
ARG_OF_PERICENTER = 202.8960
MEAN_ANOMALY   = 157.2211

EPHEMERIS_TYPE = 0
CLASSIFICATION_TYPE = U
NORAD_CAT_ID   = 66755
ELEMENT_SET_NO = 999
REV_AT_EPOCH   = 439
BSTAR          = .67280807E-3
MEAN_MOTION_DOT = .13502E-3
MEAN_MOTION_DDOT = 0

CCSDS_OMM_VERS = 2.0
CREATION_DATE  = 
ORIGINATOR     = 

OBJECT_NAME    = TRANSPORTER-15CU
OBJECT_ID      = 2025-276CU
CENTER_NAME    = EARTH
REF_FRAME      = TEME
TIME_SYSTEM    = UTC
MEAN_ELEMENT_THEORY = SGP/SGP4

EPOCH          = 2025-12-27T21:30:47.266560
MEAN_MOTION    = 15.13790352
ECCENTRICITY   = .00161066
INCLINATION    = 97.4405
RA_OF_ASC_NODE = 73.4183
ARG_OF_PERICENTER = 152.6114
MEAN_ANOMALY   = 207.5970

EPHEMERIS_TYPE = 0
CLASSIFICATION_TYPE = U
NORAD_CAT_ID   = 66756
ELEMENT_SET_NO = 999
REV_AT_EPOCH   = 442
BSTAR          = -.13428778E+0
MEAN_MOTION_DOT = -.2175858E-1
MEAN_MOTION_DDOT = 0

CCSDS_OMM_VERS = 2.0
CREATION_DATE  = 
ORIGINATOR     = 

OBJECT_NAME    = TRANSPORTER-15CV
OBJECT_ID      = 2025-276CV
CENTER_NAME    = EARTH
REF_FRAME      = TEME
TIME_SYSTEM    = UTC
MEAN_ELEMENT_THEORY = SGP/SGP4

EPOCH          = 2025-12-26T23:18:11.598048
MEAN_MOTION    = 15.17836762
ECCENTRICITY   = .00039586
INCLINATION    = 97.4382
RA_OF_ASC_NODE = 72.5157
ARG_OF_PERICENTER = 309.2672
MEAN_ANOMALY   = 50.8210

EPHEMERIS_TYPE = 0
CLASSIFICATION_TYPE = U
NORAD_CAT_ID   = 66757
ELEMENT_SET_NO = 999
REV_AT_EPOCH   = 428
BSTAR          = -.10277728E-1
MEAN_MOTION_DOT = -.202306E-2
MEAN_MOTION_DDOT = 0

CCSDS_OMM_VERS = 2.0
CREATION_DATE  = 
ORIGINATOR     = 

OBJECT_NAME    = TRANSPORTER-15CW
OBJECT_ID      = 2025-276CW
CENTER_NAME    = EARTH
REF_FRAME      = TEME
TIME_SYSTEM    = UTC
MEAN_ELEMENT_THEORY = SGP/SGP4

EPOCH          = 2025-12-27T23:01:27.178176
MEAN_MOTION    = 15.18147196
ECCENTRICITY   = .00015818
INCLINATION    = 97.4386
RA_OF_ASC_NODE = 73.4788
ARG_OF_PERICENTER = 133.9723
MEAN_ANOMALY   = 226.1642

EPHEMERIS_TYPE = 0
CLASSIFICATION_TYPE = U
NORAD_CAT_ID   = 66758
ELEMENT_SET_NO = 999
REV_AT_EPOCH   = 443
BSTAR          = .61779765E-3
MEAN_MOTION_DOT = .12559E-3
MEAN_MOTION_DDOT = 0

CCSDS_OMM_VERS = 2.0
CREATION_DATE  = 
ORIGINATOR     = 

OBJECT_NAME    = TRANSPORTER-15CX
OBJECT_ID      = 2025-276CX
CENTER_NAME    = EARTH
REF_FRAME      = TEME
TIME_SYSTEM    = UTC
MEAN_ELEMENT_THEORY = SGP/SGP4

EPOCH          = 2025-12-27T21:23:28.626720
MEAN_MOTION    = 15.18295163
ECCENTRICITY   = .00017912
INCLINATION    = 97.4375
RA_OF_ASC_NODE = 73.4123
ARG_OF_PERICENTER = 129.1787
MEAN_ANOMALY   = 230.9607

EPHEMERIS_TYPE = 0
CLASSIFICATION_TYPE = U
NORAD_CAT_ID   = 66759
ELEMENT_SET_NO = 999
REV_AT_EPOCH   = 442
BSTAR          = .68689228E-3
MEAN_MOTION_DOT = .14034E-3
MEAN_MOTION_DDOT = 0

CCSDS_OMM_VERS = 2.0
CREATION_DATE  = 
ORIGINATOR     = 

OBJECT_NAME    = TRANSPORTER-15CY
OBJECT_ID      = 2025-276CY
CENTER_NAME    = EARTH
REF_FRAME      = TEME
TIME_SYSTEM    = UTC
MEAN_ELEMENT_THEORY = SGP/SGP4

EPOCH          = 2025-12-27T19:48:10.794816
MEAN_MOTION    = 15.18251989
ECCENTRICITY   = .00017399
INCLINATION    = 97.4392
RA_OF_ASC_NODE = 73.3541
ARG_OF_PERICENTER = 112.3855
MEAN_ANOMALY   = 247.7564

EPHEMERIS_TYPE = 0
CLASSIFICATION_TYPE = U
NORAD_CAT_ID   = 66760
ELEMENT_SET_NO = 999
REV_AT_EPOCH   = 441
BSTAR          = .43126122E-3
MEAN_MOTION_DOT = .8769E-4
MEAN_MOTION_DDOT = 0

