TRANSPORTER-15CM        
1 66749U 25276CM  25361.96326060  .00012794  00000+0  63274-3 0  9990
2 66749  97.4394  73.4740 0002315 172.8823 187.2444 15.17952704  4439
TRANSPORTER-15CN        
1 66750U 25276CN  25361.43234871 -.00140011  00000+0 -70297-2 0  9990
2 66750  97.4386  72.9732 0004327 136.6329 223.5247 15.17947240  4356
ICEYE-X58               
1 66751U 25276CP  25361.96388279  .00007403  00000+0  36886-3 0  9993
2 66751  97.4406  73.4820 0002803 187.1831 172.9364 15.17849857  4431
ICEYE-X59               
1 66752U 25276CQ  25361.83572141  .00011363  00000+0  56723-3 0  9995
2 66752  97.4399  73.3468 0002118 212.1507 147.9598 15.17657691  4410
ICEYE-X60               
1 66753U 25276CR  25361.90614306  .00006427  00000+0  32457-3 0  9997
2 66753  97.4400  73.4019 0001285 237.3905 122.7205 15.17428376  4425
ICEYE-X61               
1 66754U 25276CS  25361.96286697  .00012054  00000+0  59727-3 0  9994
2 66754  97.4399  73.4780 0002726 175.6159 184.5100 15.17901527  4439
ICEYE-X62               
1 66755U 25276CT  25361.70407155  .00013502  00000+0  67281-3 0  9994
2 66755  97.4399  73.2121 0001411 202.8960 157.2211 15.17676862  4396
TRANSPORTER-15CU        
1 66756U 25276CU  25361.89638040 -.02175858  00000+0 -13429+0 0  9992
2 66756  97.4405  73.4183 0016106 152.6114 207.5970 15.13790352  4427
TRANSPORTER-15CV        
1 66757U 25276CV  25360.97096757 -.00202306  00000+0 -10278-1 0  9992
2 66757  97.4382  72.5157 0003958 309.2672  50.8210 15.17836762  4283
TRANSPORTER-15CW        
1 66758U 25276CW  25361.95934234  .00012559  00000+0  61780-3 0  9996
2 66758  97.4386  73.4788 0001581 133.9723 226.1642 15.18147196  4438
TRANSPORTER-15CX        
1 66759U 25276CX  25361.89130355  .00014034  00000+0  68689-3 0  9997
2 66759  97.4375  73.4123 0001791 129.1787 230.9607 15.18295163  4421
TRANSPORTER-15CY        
1 66760U 25276CY  25361.82512494  .00008769  00000+0  43126-3 0  9997
2 66760  97.4392  73.3541 0001739 112.3855 247.7564 15.18251989  4412
